IRIDIUM 159             
1 43578U 18061K   25274.43479538  .00000181  00000+0  57479-4 0  9991
2 43578  86.4029 164.8622 0001983  85.9999 274.1423 14.34219068376295
IRIDIUM 180             
1 43922U 19002A   25274.43429301  .00000060  00000+0  14442-4 0  9992
2 43922  86.3913 101.7849 0002146  91.2109 268.9333 14.34217865351900
IRIDIUM 176             
1 43923U 19002B   25274.47389053  .00000816  00000+0  12555-3 0  9997
2 43923  86.6036 101.7490 0003014  81.2030 278.9529 14.72247193361187
IRIDIUM 168             
1 43924U 19002C   25274.49771865  .00000092  00000+0  25816-4 0  9997
2 43924  86.3915 101.8285 0002162  89.6349 270.5095 14.34218146351899
IRIDIUM 173             
1 43925U 19002D   25274.48503321  .00000019  00000+0 -17955-6 0  9994
2 43925  86.3913 101.7330 0002180  91.3704 268.7741 14.34217689351879
IRIDIUM 169             
1 43926U 19002E   25274.36565950  .00000727  00000+0  23116-3 0  9996
2 43926  86.4227 133.4200 0003442  83.9023 276.2567 14.38614135353019
IRIDIUM 172             
1 43927U 19002F   25274.26938450  .00000103  00000+0  29692-4 0  9999
2 43927  86.3913 101.8304 0002026  95.6555 264.4872 14.34218095351851
IRIDIUM 175             
1 43928U 19002G   25274.40105838  .00002898  00000+0  45566-3 0  9992
2 43928  86.1494  48.2395 0002275  67.9803 292.1655 14.72237751361166
